IRIDIUM 135             
1 43070U 17083A   26200.38461996 -.00000007  00000+0 -95211-5 0  9990
2 43070  86.3984 308.5572 0002109  94.9065 265.2372 14.34217643448760
IRIDIUM 138             
1 43071U 17083B   26200.34022067  .00000183  00000+0  58136-4 0  9996
2 43071  86.4000 308.2759 0002040  94.0039 266.1390 14.34217252448745
IRIDIUM 116             
1 43072U 17083C   26200.58758353  .00000122  00000+0  36446-4 0  9990
2 43072  86.3986 308.4578 0002502  97.9394 262.2086 14.34216916448811
IRIDIUM 130             
1 43073U 17083D   26200.34656536  .00000135  00000+0  41285-4 0  9996
2 43073  86.3994 308.8369 0002350 100.3677 259.7784 14.34218869448722
IRIDIUM 151             
1 43074U 17083E   26200.53050016  .00000139  00000+0  42500-4 0  9994
2 43074  86.3989 308.5402 0002281  95.1634 264.9823 14.34217863448779
IRIDIUM 134             
1 43075U 17083F   26200.35924977  .00000038  00000+0  66152-5 0  9999
2 43075  86.3989 308.6201 0002257  96.5795 263.5658 14.34217879448716
IRIDIUM 137             
1 43076U 17083G   26200.58124142 -.00000002  00000+0 -79019-5 0  9990
2 43076  86.3988 308.6210 0002557  91.5181 268.6308 14.34217634448811
IRIDIUM 141             
1 43077U 17083H   26200.57489821  .00000131  00000+0  39670-4 0  9997
2 43077  86.3986 308.4524 0002146  93.9606 266.1835 14.34217331448810
IRIDIUM 153             
1 43078U 17083J   26200.24800214  .00000011  00000+0 -29931-5 0  9993
2 43078  86.3956 277.0673 0002028  96.1154 264.0273 14.34217587449879
IRIDIUM 131             
1 43079U 17083K   26200.56221289 -.00000031  00000+0 -17986-4 0  9997
2 43079  86.3987 308.6458 0002094  93.9130 266.2305 14.34217413448741
IRIDIUM 144             
1 43249U 18030A   26200.46365069  .00000081  00000+0  21790-4 0  9994
2 43249  86.3956 276.9058 0002372  96.2572 263.8895 14.34217272434761
IRIDIUM 149             
1 43250U 18030B   26200.26068775  .00000000  00000+0 -71420-5 0  9996
2 43250  86.3951 276.9568 0002134  93.4785 266.6654 14.34217542434758
IRIDIUM 157             
1 43251U 18030C   26200.48902130  .00000102  00000+0  29466-4 0  9997
2 43251  86.3955 276.9155 0002296  94.7390 265.4068 14.34218755434764
IRIDIUM 140             
1 43252U 18030D   26200.29874454  .00000134  00000+0  40781-4 0  9992
2 43252  86.3955 277.0077 0002261  95.9234 264.2219 14.34218637434799
IRIDIUM 145             
1 43253U 18030E   26200.42559599  .00000038  00000+0  66692-5 0  9991
2 43253  86.3954 276.9267 0002573  98.1386 262.0102 14.34217373434745
IRIDIUM 146             
1 43254U 18030F   26200.26703073  .00000011  00000+0 -30047-5 0  9999
2 43254  86.3953 277.0051 0002272  96.3053 263.8402 14.34217383434737
IRIDIUM 148             
1 43255U 18030G   26200.30508670  .00000124  00000+0  37053-4 0  9998
2 43255  86.3956 277.0327 0002353  93.2100 266.9366 14.34218913434773
IRIDIUM 142             
1 43256U 18030H   26200.27337308  .00000015  00000+0 -16235-5 0  9993
2 43256  86.3951 276.9336 0002344  95.7222 264.4241 14.34217702434735
IRIDIUM 150             
1 43257U 18030J   26200.31142845  .00000047  00000+0  98744-5 0  9998
2 43257  86.3956 277.0357 0002320  96.1525 263.9935 14.34217265434762
IRIDIUM 143             
1 43258U 18030K   26200.50170663  .00000091  00000+0  25340-4 0  9999
2 43258  86.3958 277.0497 0002384  96.6707 263.4760 14.34218259434728
IRIDIUM 161             
1 43478U 18047C   26200.61583082  .00000143  00000+0  36577-4 0  9998
2 43478  86.4457  74.9086 0002176  80.7180 279.4267 14.43276966429815
IRIDIUM 152             
1 43479U 18047D   26200.19535001 -.00000087  00000+0 -38100-4 0  9993
2 43479  86.3930  74.9455 0002013  83.9194 276.2231 14.34217504427076
IRIDIUM 147             
1 43480U 18047E   26200.62030382  .00000071  00000+0  18384-4 0  9998
2 43480  86.3933  74.7738 0002298  87.6366 272.5093 14.34217867427134
IRIDIUM 110             
1 43481U 18047F   26200.62664439  .00000111  00000+0  32701-4 0  9999
2 43481  86.3936  74.8639 0002058  77.7998 282.3428 14.34216820427122
IRIDIUM 162             
1 43482U 18047G   26200.12421176  .00000158  00000+0  40961-4 0  9992
2 43482  86.4456  75.0048 0002189  86.6560 273.4892 14.43279647429738
IRIDIUM 160             
1 43569U 18061A   26200.50271333  .00000093  00000+0  26060-4 0  9996
2 43569  86.3939  43.2793 0002216  86.9739 273.1710 14.34217816418009
IRIDIUM 166             
1 43570U 18061B   26200.52808435  .00000012  00000+0 -27720-5 0  9996
2 43570  86.3937  43.2187 0002284  89.5415 270.6043 14.34217662418034
IRIDIUM 158             
1 43571U 18061C   26200.49637155  .00000024  00000+0  15428-5 0  9996
2 43571  86.3937  43.2419 0002118  88.7187 271.4251 14.34217288417994
IRIDIUM 165             
1 43572U 18061D   26200.10313082  .00000083  00000+0  22738-4 0  9991
2 43572  86.3939  43.4534 0002280  91.5642 268.5815 14.34217994417969
IRIDIUM 155             
1 43573U 18061E   26200.48368579  .00000037  00000+0  62915-5 0  9995
2 43573  86.3936  43.1616 0002144  90.5163 269.6278 14.34217753417981
