OBJECT_NAME,OBJECT_ID,EPOCH,MEAN_MOTION,ECCENTRICITY,INCLINATION,RA_OF_ASC_NODE,ARG_OF_PERICENTER,MEAN_ANOMALY,EPHEMERIS_TYPE,CLASSIFICATION_TYPE,NORAD_CAT_ID,ELEMENT_SET_NO,REV_AT_EPOCH,BSTAR,MEAN_MOTION_DOT,MEAN_MOTION_DDOT
IRIDIUM 135,2017-083A,2026-07-19T09:13:51.164544,14.34217643,.00021099,86.3984,308.5572,94.9065,265.2372,0,U,43070,999,44876,-.9521077E-5,-.7E-7,0
IRIDIUM 138,2017-083B,2026-07-19T08:09:55.065888,14.34217252,.00020409,86.4000,308.2759,94.0039,266.1390,0,U,43071,999,44874,.58135867E-4,.183E-5,0
IRIDIUM 116,2017-083C,2026-07-19T14:06:07.216992,14.34216916,.00025023,86.3986,308.4578,97.9394,262.2086,0,U,43072,999,44881,.36446035E-4,.122E-5,0
IRIDIUM 130,2017-083D,2026-07-19T08:19:03.247104,14.34218869,.00023509,86.3994,308.8369,100.3677,259.7784,0,U,43073,999,44872,.41285187E-4,.135E-5,0
IRIDIUM 151,2017-083E,2026-07-19T12:43:55.213824,14.34217863,.00022814,86.3989,308.5402,95.1634,264.9823,0,U,43074,999,44877,.4250018E-4,.139E-5,0
IRIDIUM 134,2017-083F,2026-07-19T08:37:19.180128,14.34217879,.00022574,86.3989,308.6201,96.5795,263.5658,0,U,43075,999,44871,.6615218E-5,.38E-6,0
IRIDIUM 137,2017-083G,2026-07-19T13:56:59.258688,14.34217634,.00025575,86.3988,308.6210,91.5181,268.6308,0,U,43076,999,44881,-.7901893E-5,-.2E-7,0
IRIDIUM 141,2017-083H,2026-07-19T13:47:51.205344,14.34217331,.00021464,86.3986,308.4524,93.9606,266.1835,0,U,43077,999,44881,.39670496E-4,.131E-5,0
IRIDIUM 153,2017-083J,2026-07-19T05:57:07.384896,14.34217587,.00020286,86.3956,277.0673,96.1154,264.0273,0,U,43078,999,44987,-.2993098E-5,.11E-6,0
IRIDIUM 131,2017-083K,2026-07-19T13:29:35.193696,14.34217413,.00020946,86.3987,308.6458,93.9130,266.2305,0,U,43079,999,44874,-.17986403E-4,-.31E-6,0
IRIDIUM 144,2018-030A,2026-07-19T11:07:39.419616,14.34217272,.00023722,86.3956,276.9058,96.2572,263.8895,0,U,43249,999,43476,.21790058E-4,.81E-6,0
IRIDIUM 149,2018-030B,2026-07-19T06:15:23.421600,14.34217542,.00021342,86.3951,276.9568,93.4785,266.6654,0,U,43250,999,43475,-.7142044E-5,0,0
IRIDIUM 157,2018-030C,2026-07-19T11:44:11.440320,14.34218755,.00022969,86.3955,276.9155,94.7390,265.4068,0,U,43251,999,43476,.29466173E-4,.102E-5,0
IRIDIUM 140,2018-030D,2026-07-19T07:10:11.528256,14.34218637,.00022615,86.3955,277.0077,95.9234,264.2219,0,U,43252,999,43479,.40781252E-4,.134E-5,0
IRIDIUM 145,2018-030E,2026-07-19T10:12:51.493536,14.34217373,.00025734,86.3954,276.9267,98.1386,262.0102,0,U,43253,999,43474,.6669162E-5,.38E-6,0
IRIDIUM 146,2018-030F,2026-07-19T06:24:31.455072,14.34217383,.00022723,86.3953,277.0051,96.3053,263.8402,0,U,43254,999,43473,-.3004662E-5,.11E-6,0
IRIDIUM 148,2018-030G,2026-07-19T07:19:19.490880,14.34218913,.00023538,86.3956,277.0327,93.2100,266.9366,0,U,43255,999,43477,.37053194E-4,.124E-5,0
IRIDIUM 142,2018-030H,2026-07-19T06:33:39.434112,14.34217702,.00023444,86.3951,276.9336,95.7222,264.4241,0,U,43256,999,43473,-.1623538E-5,.15E-6,0
IRIDIUM 150,2018-030J,2026-07-19T07:28:27.418080,14.34217265,.00023206,86.3956,277.0357,96.1525,263.9935,0,U,43257,999,43476,.9874433E-5,.47E-6,0
IRIDIUM 143,2018-030K,2026-07-19T12:02:27.452832,14.34218259,.00023848,86.3958,277.0497,96.6707,263.4760,0,U,43258,999,43472,.25340463E-4,.91E-6,0
IRIDIUM 161,2018-047C,2026-07-19T14:46:47.782848,14.43276966,.00021762,86.4457,74.9086,80.7180,279.4267,0,U,43478,999,42981,.36577088E-4,.143E-5,0
IRIDIUM 152,2018-047D,2026-07-19T04:41:18.240864,14.34217504,.0002013,86.3930,74.9455,83.9194,276.2231,0,U,43479,999,42707,-.38099866E-4,-.87E-6,0
IRIDIUM 147,2018-047E,2026-07-19T14:53:14.250048,14.34217867,.00022989,86.3933,74.7738,87.6366,272.5093,0,U,43480,999,42713,.18384091E-4,.71E-6,0
IRIDIUM 110,2018-047F,2026-07-19T15:02:22.075296,14.34216820,.00020583,86.3936,74.8639,77.7998,282.3428,0,U,43481,999,42712,.32700878E-4,.111E-5,0
IRIDIUM 162,2018-047G,2026-07-19T02:58:51.896064,14.43279647,.00021895,86.4456,75.0048,86.6560,273.4892,0,U,43482,999,42973,.40961402E-4,.158E-5,0
IRIDIUM 160,2018-061A,2026-07-19T12:03:54.431712,14.34217816,.00022163,86.3939,43.2793,86.9739,273.1710,0,U,43569,999,41800,.26059657E-4,.93E-6,0
IRIDIUM 166,2018-061B,2026-07-19T12:40:26.487840,14.34217662,.00022841,86.3937,43.2187,89.5415,270.6043,0,U,43570,999,41803,-.2772014E-5,.12E-6,0
IRIDIUM 158,2018-061C,2026-07-19T11:54:46.501920,14.34217288,.00021186,86.3937,43.2419,88.7187,271.4251,0,U,43571,999,41799,.1542784E-5,.24E-6,0
IRIDIUM 165,2018-061D,2026-07-19T02:28:30.502848,14.34217994,.00022802,86.3939,43.4534,91.5642,268.5815,0,U,43572,999,41796,.22737763E-4,.83E-6,0
IRIDIUM 155,2018-061E,2026-07-19T11:36:30.452256,14.34217753,.00021442,86.3936,43.1616,90.5163,269.6278,0,U,43573,999,41798,.6291525E-5,.37E-6,0
